NORAD_CAT_ID,OBJECT_NAME,OBJECT_TYPE,EPOCH,MEAN_MOTION,ECCENTRICITY,INCLINATION,RA_OF_ASC_NODE,ARG_OF_PERICENTER,MEAN_ANOMALY,BSTAR,MEAN_MOTION_DOT,MEAN_MOTION_DDOT,TLE_LINE0,TLE_LINE1,TLE_LINE2,SEMIMAJOR_AXIS,PERIOD,APOGEE,PERIGEE,DECAYED
50170.0,STARLINK-3245,PAYLOAD,2023-11-12 19:54:55,15.08841692,0.0001052,53.2166,95.3112,81.6701,278.441,0.00010136,1.326e-05,0.0,0 STARLINK-3245,1 50170U 21125Q   23316.82981018  .00001326  00000-0  10136-3 0  9992,2 50170  53.2166  95.3112 0001052  81.6701 278.4410 15.08841692108593,6917.875,95.437,540.468,539.012,0.0
50170.0,STARLINK-3245,PAYLOAD,2023-11-13 13:24:08,15.08910361,0.0001346,53.2163,92.0401,95.3502,264.7644,-0.0010232,-0.00016567,0.0,0 STARLINK-3245,1 50170U 21125Q   23317.55843126 -.00016567  00000-0 -10232-2 0  9991,2 50170  53.2163  92.0401 0001346  95.3502 264.7644 15.08910361108702,6917.665,95.433,540.461,538.599,0.0
50170.0,STARLINK-3245,PAYLOAD,2023-11-14 02:07:15,15.08844788,0.0001013,53.2164,89.661,89.5216,270.5892,0.00011106,1.48e-05,0.0,0 STARLINK-3245,1 50170U 21125Q   23318.08836851  .00001480  00000-0  11106-3 0  9995,2 50170  53.2164  89.6610 0001013  89.5216 270.5892 15.08844788108300,6917.866,95.437,540.432,539.03,0.0
50170.0,STARLINK-3245,PAYLOAD,2023-11-14 13:14:57,15.08832944,9.89e-05,53.2167,87.5797,82.6021,277.5084,0.00010576,1.396e-05,0.0,0 STARLINK-3245,1 50170U 21125Q   23318.55205713  .00001396  00000-0  10576-3 0  9990,2 50170  53.2167  87.5797 0000989  82.6021 277.5084 15.08832944108856,6917.902,95.438,540.451,539.083,0.0
50170.0,STARLINK-3245,PAYLOAD,2023-11-14 18:01:06,15.08842571,0.0001163,53.2159,86.6878,92.6908,267.4217,9.3128e-05,1.195e-05,0.0,0 STARLINK-3245,1 50170U 21125Q   23318.75077147  .00001195  00000-0  93128-4 0  9992,2 50170  53.2159  86.6878 0001163  92.6908 267.4217 15.08842571108883,6917.873,95.437,540.542,538.933,0.0
50170.0,STARLINK-3245,PAYLOAD,2023-11-15 14:41:08,15.0880806,0.00016,53.2162,82.8214,110.779,249.3373,0.00053294,8.197e-05,0.0,0 STARLINK-3245,1 50170U 21125Q   23319.61190047  .00008197  00000-0  53294-3 0  9991,2 50170  53.2162  82.8214 0001600 110.7790 249.3373 15.08808060109019,6917.978,95.44,540.95,538.736,0.0
50170.0,STARLINK-3245,PAYLOAD,2023-11-15 17:51:53,15.08846223,0.0001244,53.2166,82.2253,95.7797,264.3337,0.00010703,1.416e-05,0.0,0 STARLINK-3245,1 50170U 21125Q   23319.74436865  .00001416  00000-0  10703-3 0  9991,2 50170  53.2166  82.2253 0001244  95.7797 264.3337 15.08846223109035,6917.861,95.437,540.587,538.866,0.0
50170.0,STARLINK-3245,PAYLOAD,2023-11-16 08:10:21,15.0883986,0.0001387,53.2168,79.5494,94.7547,265.3604,0.00010926,1.451e-05,0.0,0 STARLINK-3245,1 50170U 21125Q   23320.34053229  .00001451  00000-0  10926-3 0  9994,2 50170  53.2168  79.5494 0001387  94.7547 265.3604 15.08839860108646,6917.881,95.438,540.705,538.786,0.0
50170.0,STARLINK-3245,PAYLOAD,2023-11-17 11:11:55,15.08842091,0.0001529,53.2177,74.4921,104.542,255.5742,6.8658e-05,8.05e-06,0.0,0 STARLINK-3245,1 50170U 21125Q   23321.46661080  .00000805  00000-0  68658-4 0  9996,2 50170  53.2177  74.4921 0001529 104.5420 255.5742 15.08842091108816,6917.874,95.437,540.797,538.681,0.0
50170.0,STARLINK-3245,PAYLOAD,2023-11-17 14:22:41,15.08841342,0.0001332,53.2174,73.8992,92.8033,267.3112,3.2926e-05,2.36e-06,0.0,0 STARLINK-3245,1 50170U 21125Q   23321.59909236  .00000236  00000-0  32926-4 0  9995,2 50170  53.2174  73.8992 0001332  92.8033 267.3112 15.08841342109311,6917.876,95.437,540.663,538.82,0.0
50170.0,STARLINK-3245,PAYLOAD,2023-11-18 12:38:05,15.08836475,0.0001242,53.2184,69.7379,91.0375,269.0759,2.5757e-05,1.22e-06,0.0,0 STARLINK-3245,1 50170U 21125Q   23322.52645687  .00000122  00000-0  25757-4 0  9994,2 50170  53.2184  69.7379 0001242  91.0375 269.0759 15.08836475108973,6917.891,95.438,540.615,538.897,0.0
50170.0,STARLINK-3245,PAYLOAD,2023-11-18 14:13:28,15.08838738,0.0001136,53.2179,69.4412,89.5863,270.5259,4.3485e-05,4.04e-06,0.0,0 STARLINK-3245,1 50170U 21125Q   23322.59269474  .00000404  00000-0  43485-4 0  9998,2 50170  53.2179  69.4412 0001136  89.5863 270.5259 15.08838738109469,6917.884,95.438,540.535,538.963,0.0
50170.0,STARLINK-3245,PAYLOAD,2023-11-19 14:04:15,15.08838134,0.0001341,53.2187,64.983,93.9954,266.1191,7.4985e-05,9.06e-06,0.0,0 STARLINK-3245,1 50170U 21125Q   23323.58629600  .00000906  00000-0  74985-4 0  9995,2 50170  53.2187  64.9830 0001341  93.9954 266.1191 15.08838134109613,6917.886,95.438,540.679,538.823,0.0
50170.0,STARLINK-3245,PAYLOAD,2023-11-20 07:33:30,15.08823848,0.0001511,53.2188,61.7123,106.4707,253.6451,0.00023114,3.391e-05,0.0,0 STARLINK-3245,1 50170U 21125Q   23324.31493957  .00003391  00000-0  23114-3 0  9999,2 50170  53.2188  61.7123 0001511 106.4707 253.6451 15.08823848109244,6917.93,95.439,540.84,538.749,0.0
50170.0,STARLINK-3245,PAYLOAD,2023-11-20 13:55:03,15.08834596,0.0001511,53.2189,60.5234,108.5783,251.5373,0.00019513,2.818e-05,0.0,0 STARLINK-3245,1 50170U 21125Q   23324.57989645  .00002818  00000-0  19513-3 0  9992,2 50170  53.2189  60.5234 0001511 108.5783 251.5373 15.08834596109761,6917.897,95.438,540.807,538.717,0.0
50170.0,STARLINK-3245,PAYLOAD,2023-11-20 15:30:26,15.08839366,0.0001465,53.2191,60.2259,106.2189,253.8964,0.00014738,2.058e-05,0.0,0 STARLINK-3245,1 50170U 21125Q   23324.64613517  .00002058  00000-0  14738-3 0  9992,2 50170  53.2191  60.2259 0001465 106.2189 253.8964 15.08839366109290,6917.882,95.438,540.761,538.734,0.0
50170.0,STARLINK-3245,PAYLOAD,2023-11-21 10:35:04,15.08832262,0.0001988,53.2184,56.6562,91.7607,268.3612,0.00012314,1.672e-05,0.0,0 STARLINK-3245,1 50170U 21125Q   23325.44102331  .00001672  00000-0  12314-3 0  9997,2 50170  53.2184  56.6562 0001988  91.7607 268.3612 15.08832262109414,6917.904,95.438,541.144,538.394,0.0
50170.0,STARLINK-3245,PAYLOAD,2023-11-21 13:45:49,15.08847114,0.0001497,53.2183,56.0611,95.2229,264.8934,4.8489e-05,4.84e-06,0.0,0 STARLINK-3245,1 50170U 21125Q   23325.57349348  .00000484  00000-0  48489-4 0  9995,2 50170  53.2183  56.0611 0001497  95.2229 264.8934 15.08847114109911,6917.859,95.437,540.759,538.688,0.0
50170.0,STARLINK-3245,PAYLOAD,2023-11-21 15:21:12,15.0884642,0.0001305,53.2177,55.7623,87.2586,272.8556,9.6441e-05,1.248e-05,0.0,0 STARLINK-3245,1 50170U 21125Q   23325.63973237  .00001248  00000-0  96441-4 0  9992,2 50170  53.2177  55.7623 0001305  87.2586 272.8556 15.08846420109927,6917.861,95.437,540.629,538.823,0.0
50170.0,STARLINK-3245,PAYLOAD,2023-11-22 13:36:36,15.08854329,0.0001724,53.2185,51.6033,79.9792,280.1395,5.2048e-05,5.41e-06,0.0,0 STARLINK-3245,1 50170U 21125Q   23326.56708922  .00000541  00000-0  52048-4 0  9992,2 50170  53.2185  51.6033 0001724  79.9792 280.1395 15.08854329110065,6917.837,95.437,540.894,538.509,0.0
50170.0,STARLINK-3245,PAYLOAD,2023-11-23 11:52:01,15.08839239,0.0001645,53.2183,47.4397,72.4581,287.6591,7.6923e-06,-1.66e-06,0.0,0 STARLINK-3245,1 50170U 21125Q   23327.49445996 -.00000166  00000-0  76923-5 0  9997,2 50170  53.2183  47.4397 0001645  72.4581 287.6591 15.08839239109729,6917.883,95.438,540.886,538.61,0.0
50170.0,STARLINK-3245,PAYLOAD,2023-11-24 13:18:10,15.08849675,0.0001566,53.2181,42.6791,91.0454,269.0717,4.8621e-05,4.86e-06,0.0,0 STARLINK-3245,1 50170U 21125Q   23328.55429246  .00000486  00000-0  48621-4 0  9992,2 50170  53.2181  42.6791 0001566  91.0454 269.0717 15.08849675110361,6917.851,95.437,540.799,538.632,0.0
50170.0,STARLINK-3245,PAYLOAD,2023-11-25 11:33:35,15.08844696,0.0001642,53.2185,38.515,104.1286,255.9888,0.00019933,2.886e-05,0.0,0 STARLINK-3245,1 50170U 21125Q   23329.48165737  .00002886  00000-0  19933-3 0  9996,2 50170  53.2185  38.5150 0001642 104.1286 255.9888 15.08844696110509,6917.866,95.437,540.867,538.595,0.0
50170.0,STARLINK-3245,PAYLOAD,2023-11-26 11:24:21,15.08860478,0.000145,53.2174,34.0546,89.8307,270.2852,0.00024147,3.559e-05,0.0,0 STARLINK-3245,1 50170U 21125Q   23330.47524591  .00003559  00000-0  24147-3 0  9995,2 50170  53.2174  34.0546 0001450  89.8307 270.2852 15.08860478110650,6917.818,95.436,540.686,538.68,0.0
50170.0,STARLINK-3245,PAYLOAD,2023-11-27 04:53:37,15.08817834,0.0001625,53.2183,30.7813,79.1806,280.9369,-0.00040442,-6.715e-05,0.0,0 STARLINK-3245,1 50170U 21125Q   23331.20390863 -.00006715  00000-0 -40442-3 0  9995,2 50170  53.2183  30.7813 0001625  79.1806 280.9369 15.08817834110288,6917.948,95.439,540.937,538.689,0.0
50170.0,STARLINK-3245,PAYLOAD,2023-11-27 11:15:11,15.08811501,0.0001443,53.2183,29.5922,100.4255,259.69,-0.00037645,-6.269e-05,0.0,0 STARLINK-3245,1 50170U 21125Q   23331.46887789 -.00006269  00000-0 -37645-3 0  9996,2 50170  53.2183  29.5922 0001443 100.4255 259.6900 15.08811501110806,6917.968,95.439,540.831,538.834,0.0
50170.0,STARLINK-3245,PAYLOAD,2023-11-27 22:22:53,15.08821073,0.0001334,53.2179,27.5135,84.122,275.9924,-0.00015409,-2.738e-05,0.0,0 STARLINK-3245,1 50170U 21125Q   23331.93255900 -.00002738  00000-0 -15409-3 0  9993,2 50170  53.2179  27.5135 0001334  84.1220 275.9924 15.08821073110390,6917.938,95.439,540.726,538.88,0.0
50170.0,STARLINK-3245,PAYLOAD,2023-11-28 11:05:57,15.08842714,0.0001788,53.2188,25.142,77.3871,282.7321,0.00011455,1.536e-05,0.0,0 STARLINK-3245,1 50170U 21125Q   23332.46247165  .00001536  00000-0  11455-3 0  9996,2 50170  53.2188  25.1420 0001788  77.3871 282.7321 15.08842714110471,6917.872,95.437,540.974,538.5,0.0
50170.0,STARLINK-3245,PAYLOAD,2023-11-28 12:41:20,15.08850526,0.0001587,53.2187,24.8347,93.8933,266.224,0.00020174,2.925e-05,0.0,0 STARLINK-3245,1 50170U 21125Q   23332.52870530  .00002925  00000-0  20174-3 0  9992,2 50170  53.2187  24.8347 0001587  93.8933 266.2240 15.08850526110964,6917.848,95.437,540.811,538.615,0.0
50170.0,STARLINK-3245,PAYLOAD,2023-11-29 02:59:49,15.08835405,0.000187,53.2196,22.16,122.3199,237.7975,0.00043707,6.674e-05,0.0,0 STARLINK-3245,1 50170U 21125Q   23333.12487822  .00006674  00000-0  43707-3 0  9999,2 50170  53.2196  22.1600 0001870 122.3199 237.7975 15.08835405110578,6917.894,95.438,541.053,538.466,0.0
